[{"CCSDS_OMM_VERS":"3.0","COMMENT":"GENERATED VIA SPACE-TRACK.ORG API","CREATION_DATE":"2024-09-19T16:26:17","ORIGINATOR":"18 SPCS","OBJECT_NAME":"FENGYUN 1C DEB","OBJECT_ID":"1999-025EPE","CENTER_NAME":"EARTH","REF_FRAME":"TEME","TIME_SYSTEM":"UTC","MEAN_ELEMENT_THEORY":"SGP4","EPOCH":"2024-08-20T11:26:26.054016","MEAN_MOTION":"15.47300459","ECCENTRICITY":"0.00416000","INCLINATION":"98.9457","RA_OF_ASC_NODE":"124.8165","ARG_OF_PERICENTER":"191.5835","MEAN_ANOMALY":"168.4457","EPHEMERIS_TYPE":"0","CLASSIFICATION_TYPE":"U","NORAD_CAT_ID":"37929","ELEMENT_SET_NO":"999","REV_AT_EPOCH":"75172","BSTAR":"0.00824980000000","MEAN_MOTION_DOT":"0.00459096","MEAN_MOTION_DDOT":"0.0000000000000","SEMIMAJOR_AXIS":"6802.764","PERIOD":"93.065","APOAPSIS":"452.929","PERIAPSIS":"396.330","OBJECT_TYPE":"DEBRIS","RCS_SIZE":"SMALL","COUNTRY_CODE":"PRC","LAUNCH_DATE":"1999-05-10","SITE":"TSC","DECAY_DATE":"2024-09-12","FILE":"4499365","GP_ID":"268492339","TLE_LINE0":"0 FENGYUN 1C DEB","TLE_LINE1":"1 37929U 99025EPE 24233.47669044  .00459096  00000-0  82498-2 0  9995","TLE_LINE2":"2 37929  98.9457 124.8165 0041600 191.5835 168.4457 15.47300459751729"},{"CCSDS_OMM_VERS":"3.0","COMMENT":"GENERATED VIA SPACE-TRACK.ORG API","CREATION_DATE":"2025-04-09T17:16:24","ORIGINATOR":"18 SPCS","OBJECT_NAME":"FENGYUN 1C DEB","OBJECT_ID":"1999-025EPF","CENTER_NAME":"EARTH","REF_FRAME":"TEME","TIME_SYSTEM":"UTC","MEAN_ELEMENT_THEORY":"SGP4","EPOCH":"2024-08-26T19:01:16.154112","MEAN_MOTION":"13.95483087","ECCENTRICITY":"0.01947820","INCLINATION":"98.1142","RA_OF_ASC_NODE":"230.6930","ARG_OF_PERICENTER":"197.7627","MEAN_ANOMALY":"288.5840","EPHEMERIS_TYPE":"0","CLASSIFICATION_TYPE":"U","NORAD_CAT_ID":"38110","ELEMENT_SET_NO":"999","REV_AT_EPOCH":"72304","BSTAR":"0.00184790000000","MEAN_MOTION_DOT":"0.00002904","MEAN_MOTION_DDOT":"0.0000000000000","SEMIMAJOR_AXIS":"7287.616","PERIOD":"103.190","APOAPSIS":"1051.430","PERIAPSIS":"767.531","OBJECT_TYPE":"DEBRIS","RCS_SIZE":"SMALL","COUNTRY_CODE":"PRC","LAUNCH_DATE":"1999-05-10","SITE":"TSC","DECAY_DATE":null,"FILE":"4696509","GP_ID":"285203460","TLE_LINE0":"0 FENGYUN 1C DEB","TLE_LINE1":"1 38110U 99025EPF 24239.79254808  .00002904  00000-0  18479-2 0  9997","TLE_LINE2":"2 38110  98.1142 230.6930 0194782 197.7627 288.5840 13.95483087723042"},{"CCSDS_OMM_VERS":"3.0","COMMENT":"GENERATED VIA SPACE-TRACK.ORG API","CREATION_DATE":"2015-01-11T22:17:13","ORIGINATOR":"18 SPCS","OBJECT_NAME":"FENGYUN 1C DEB","OBJECT_ID":"1999-025EPG","CENTER_NAME":"EARTH","REF_FRAME":"TEME","TIME_SYSTEM":"UTC","MEAN_ELEMENT_THEORY":"SGP4","EPOCH":"2014-12-25T17:16:59.762496","MEAN_MOTION":"15.39969133","ECCENTRICITY":"0.00752990","INCLINATION":"99.2164","RA_OF_ASC_NODE":"94.7572","ARG_OF_PERICENTER":"266.9627","MEAN_ANOMALY":"92.2995","EPHEMERIS_TYPE":"0","CLASSIFICATION_TYPE":"U","NORAD_CAT_ID":"38111","ELEMENT_SET_NO":"999","REV_AT_EPOCH":"23544","BSTAR":"0.00402420000000","MEAN_MOTION_DOT":"0.00180745","MEAN_MOTION_DDOT":"0.0000000000000","SEMIMAJOR_AXIS":"6824.337","PERIOD":"93.508","APOAPSIS":"497.589","PERIAPSIS":"394.815","OBJECT_TYPE":"DEBRIS","RCS_SIZE":"SMALL","COUNTRY_CODE":"PRC","LAUNCH_DATE":"1999-05-10","SITE":"TSC","DECAY_DATE":"2015-03-04","FILE":"1808823","GP_ID":"98052565","TLE_LINE0":"0 FENGYUN 1C DEB","TLE_LINE1":"1 38111U 99025EPG 14359.72013614  .00180745  00000-0  40242-2 0  9994","TLE_LINE2":"2 38111 099.2164 094.7572 0075299 266.9627 092.2995 15.39969133235444"},{"CCSDS_OMM_VERS":"3.0","COMMENT":"GENERATED VIA SPACE-TRACK.ORG API","CREATION_DATE":"2015-09-17T11:03:45","ORIGINATOR":"18 SPCS","OBJECT_NAME":"FENGYUN 1C DEB","OBJECT_ID":"1999-025EPH","CENTER_NAME":"EARTH","REF_FRAME":"TEME","TIME_SYSTEM":"UTC","MEAN_ELEMENT_THEORY":"SGP4","EPOCH":"2015-04-30T13:01:27.262560","MEAN_MOTION":"15.49772723","ECCENTRICITY":"0.00092560","INCLINATION":"98.2454","RA_OF_ASC_NODE":"21.4315","ARG_OF_PERICENTER":"10.4503","MEAN_ANOMALY":"4.4975","EPHEMERIS_TYPE":"0","CLASSIFICATION_TYPE":"U","NORAD_CAT_ID":"38112","ELEMENT_SET_NO":"999","REV_AT_EPOCH":"32694","BSTAR":"0.00149610000000","MEAN_MOTION_DOT":"0.00083985","MEAN_MOTION_DDOT":"0.0000000000000","SEMIMAJOR_AXIS":"6795.527","PERIOD":"92.916","APOAPSIS":"423.682","PERIAPSIS":"411.102","OBJECT_TYPE":"DEBRIS","RCS_SIZE":"SMALL","COUNTRY_CODE":"PRC","LAUNCH_DATE":"1999-05-10","SITE":"TSC","DECAY_DATE":"2015-09-22","FILE":"1927084","GP_ID":"100560905","TLE_LINE0":"0 FENGYUN 1C DEB","TLE_LINE1":"1 38112U 99025EPH 15120.54267665  .00083985  00000-0  14961-2 0  9996","TLE_LINE2":"2 38112  98.2454  21.4315 0009256  10.4503   4.4975 15.49772723326940"},{"CCSDS_OMM_VERS":"3.0","COMMENT":"GENERATED VIA SPACE-TRACK.ORG API","CREATION_DATE":"2025-04-09T17:16:24","ORIGINATOR":"18 SPCS","OBJECT_NAME":"FENGYUN 1C DEB","OBJECT_ID":"1999-025EPJ","CENTER_NAME":"EARTH","REF_FRAME":"TEME","TIME_SYSTEM":"UTC","MEAN_ELEMENT_THEORY":"SGP4","EPOCH":"2024-01-11T02:46:05.372544","MEAN_MOTION":"14.10337734","ECCENTRICITY":"0.01314830","INCLINATION":"98.4487","RA_OF_ASC_NODE":"326.1761","ARG_OF_PERICENTER":"329.8923","MEAN_ANOMALY":"29.4737","EPHEMERIS_TYPE":"0","CLASSIFICATION_TYPE":"U","NORAD_CAT_ID":"38113","ELEMENT_SET_NO":"999","REV_AT_EPOCH":"71817","BSTAR":"0.00434640000000","MEAN_MOTION_DOT":"0.00008329","MEAN_MOTION_DDOT":"0.0000000000000","SEMIMAJOR_AXIS":"7236.353","PERIOD":"102.103","APOAPSIS":"953.364","PERIAPSIS":"763.072","OBJECT_TYPE":"DEBRIS","RCS_SIZE":"SMALL","COUNTRY_CODE":"PRC","LAUNCH_DATE":"1999-05-10","SITE":"TSC","DECAY_DATE":null,"FILE":"4696164","GP_ID":"285203005","TLE_LINE0":"0 FENGYUN 1C DEB","TLE_LINE1":"1 38113U 99025EPJ 24011.11533996  .00008329  00000-0  43464-2 0  9991","TLE_LINE2":"2 38113  98.4487 326.1761 0131483 329.8923  29.4737 14.10337734718179"},{"CCSDS_OMM_VERS":"3.0","COMMENT":"GENERATED VIA SPACE-TRACK.ORG API","CREATION_DATE":"2025-04-09T17:16:24","ORIGINATOR":"18 SPCS","OBJECT_NAME":"FENGYUN 1C DEB","OBJECT_ID":"1999-025EPK","CENTER_NAME":"EARTH","REF_FRAME":"TEME","TIME_SYSTEM":"UTC","MEAN_ELEMENT_THEORY":"SGP4","EPOCH":"2022-09-21T11:21:22.275936","MEAN_MOTION":"14.20628273","ECCENTRICITY":"0.01387010","INCLINATION":"97.9424","RA_OF_ASC_NODE":"348.7889","ARG_OF_PERICENTER":"152.9917","MEAN_ANOMALY":"207.8568","EPHEMERIS_TYPE":"0","CLASSIFICATION_TYPE":"U","NORAD_CAT_ID":"38114","ELEMENT_SET_NO":"999","REV_AT_EPOCH":"69748","BSTAR":"0.00248240000000","MEAN_MOTION_DOT":"0.00005855","MEAN_MOTION_DDOT":"0.0000000000000","SEMIMAJOR_AXIS":"7201.366","PERIOD":"101.364","APOAPSIS":"923.114","PERIAPSIS":"723.347","OBJECT_TYPE":"DEBRIS","RCS_SIZE":"SMALL","COUNTRY_CODE":"PRC","LAUNCH_DATE":"1999-05-10","SITE":"TSC","DECAY_DATE":null,"FILE":"4696238","GP_ID":"285197521","TLE_LINE0":"0 FENGYUN 1C DEB","TLE_LINE1":"1 38114U 99025EPK 22264.47317449  .00005855  00000-0  24824-2 0  9992","TLE_LINE2":"2 38114  97.9424 348.7889 0138701 152.9917 207.8568 14.20628273697480"},{"CCSDS_OMM_VERS":"3.0","COMMENT":"GENERATED VIA SPACE-TRACK.ORG API","CREATION_DATE":"2025-04-09T17:16:24","ORIGINATOR":"18 SPCS","OBJECT_NAME":"FENGYUN 1C DEB","OBJECT_ID":"1999-025EPL","CENTER_NAME":"EARTH","REF_FRAME":"TEME","TIME_SYSTEM":"UTC","MEAN_ELEMENT_THEORY":"SGP4","EPOCH":"2023-01-22T18:12:53.920224","MEAN_MOTION":"13.79793541","ECCENTRICITY":"0.03200140","INCLINATION":"97.6857","RA_OF_ASC_NODE":"12.5773","ARG_OF_PERICENTER":"330.3233","MEAN_ANOMALY":"28.0097","EPHEMERIS_TYPE":"0","CLASSIFICATION_TYPE":"U","NORAD_CAT_ID":"38115","ELEMENT_SET_NO":"999","REV_AT_EPOCH":"74084","BSTAR":"0.00886200000000","MEAN_MOTION_DOT":"0.00013463","MEAN_MOTION_DDOT":"0.0000000000000","SEMIMAJOR_AXIS":"7342.756","PERIOD":"104.363","APOAPSIS":"1199.600","PERIAPSIS":"729.643","OBJECT_TYPE":"DEBRIS","RCS_SIZE":"SMALL","COUNTRY_CODE":"PRC","LAUNCH_DATE":"1999-05-10","SITE":"TSC","DECAY_DATE":null,"FILE":"4696385","GP_ID":"285197535","TLE_LINE0":"0 FENGYUN 1C DEB","TLE_LINE1":"1 38115U 99025EPL 23022.75895741  .00013463  00000-0  88620-2 0  9991","TLE_LINE2":"2 38115  97.6857  12.5773 0320014 330.3233  28.0097 13.79793541740842"},{"CCSDS_OMM_VERS":"3.0","COMMENT":"GENERATED VIA SPACE-TRACK.ORG API","CREATION_DATE":"2026-03-27T22:26:21","ORIGINATOR":"18 SPCS","OBJECT_NAME":"FENGYUN 1C DEB","OBJECT_ID":"1999-025EPM","CENTER_NAME":"EARTH","REF_FRAME":"TEME","TIME_SYSTEM":"UTC","MEAN_ELEMENT_THEORY":"SGP4","EPOCH":"2026-03-27T09:06:46.145664","MEAN_MOTION":"14.17259838","ECCENTRICITY":"0.00714370","INCLINATION":"98.6990","RA_OF_ASC_NODE":"127.9579","ARG_OF_PERICENTER":"205.7670","MEAN_ANOMALY":"171.9720","EPHEMERIS_TYPE":"0","CLASSIFICATION_TYPE":"U","NORAD_CAT_ID":"38116","ELEMENT_SET_NO":"999","REV_AT_EPOCH":"65967","BSTAR":"0.00045699000000","MEAN_MOTION_DOT":"0.00000903","MEAN_MOTION_DDOT":"0.0000000000000","SEMIMAJOR_AXIS":"7212.772","PERIOD":"101.605","APOAPSIS":"886.163","PERIAPSIS":"783.111","OBJECT_TYPE":"DEBRIS","RCS_SIZE":"SMALL","COUNTRY_CODE":"PRC","LAUNCH_DATE":"1999-05-10","SITE":"TSC","DECAY_DATE":null,"FILE":"5101552","GP_ID":"317305818","TLE_LINE0":"0 FENGYUN 1C DEB","TLE_LINE1":"1 38116U 99025EPM 26086.37970076  .00000903  00000-0  45699-3 0  9993","TLE_LINE2":"2 38116  98.6990 127.9579 0071437 205.7670 171.9720 14.17259838659679"}]